{
  "type": "FeatureCollection",
  "features": [
    {
      "type": "Feature",
      "properties": {
        "norad_id": 43706,
        "name": "BEIDOU-3 M17 (C36)",
        "group": "beidou",
        "lat": 18.58730285721873,
        "lon": -157.28350947763636,
        "alt_km": 21521.822066618588,
        "timestamp": "2025-12-11T22:43:47.534091+00:00",
        "meta_object_name": "BEIDOU-3 M17 (C36)",
        "meta_object_id": "2018-093A",
        "meta_epoch": "2025-12-11T15:30:48.559104",
        "meta_mean_motion": 1.86228399,
        "meta_eccentricity": 0.00062348,
        "meta_inclination": 54.1726,
        "meta_ra_of_asc_node": 188.6587,
        "meta_arg_of_pericenter": 307.4017,
        "meta_mean_anomaly": 234.1514,
        "meta_ephemeris_type": 0,
        "meta_classification_type": "U",
        "meta_norad_cat_id": 43706,
        "meta_element_set_no": 999,
        "meta_rev_at_epoch": 4804,
        "meta_bstar": 0,
        "meta_mean_motion_dot": 7.1e-07,
        "meta_mean_motion_ddot": 0,
        "tle_line1": "1 43706U 18093A   25345.64639536  .00000071  00000+0  00000+0 0  9998",
        "tle_line2": "2 43706  54.1726 188.6587 0006234 307.4017 234.1514  1.86228399 48041"
      },
      "geometry": {
        "type": "Point",
        "coordinates": [
          -157.28350947763636,
          18.58730285721873
        ]
      }
    },
    {
      "type": "Feature",
      "properties": {
        "norad_id": 43707,
        "name": "BEIDOU-3 M18 (C37)",
        "group": "beidou",
        "lat": 46.724259923491545,
        "lon": -41.46985748026586,
        "alt_km": 21532.74435700555,
        "timestamp": "2025-12-11T22:43:47.534103+00:00",
        "meta_object_name": "BEIDOU-3 M18 (C37)",
        "meta_object_id": "2018-093B",
        "meta_epoch": "2025-12-09T02:08:32.306784",
        "meta_mean_motion": 1.86226655,
        "meta_eccentricity": 0.00062934,
        "meta_inclination": 54.1729,
        "meta_ra_of_asc_node": 188.7377,
        "meta_arg_of_pericenter": 351.6926,
        "meta_mean_anomaly": 8.358,
        "meta_ephemeris_type": 0,
        "meta_classification_type": "U",
        "meta_norad_cat_id": 43707,
        "meta_element_set_no": 999,
        "meta_rev_at_epoch": 4799,
        "meta_bstar": 0,
        "meta_mean_motion_dot": 4.9e-07,
        "meta_mean_motion_ddot": 0,
        "tle_line1": "1 43707U 18093B   25343.08926281  .00000049  00000+0  00000+0 0  9996",
        "tle_line2": "2 43707  54.1729 188.7377 0006293 351.6926   8.3580  1.86226655 47998"
      },
      "geometry": {
        "type": "Point",
        "coordinates": [
          -41.46985748026586,
          46.724259923491545
        ]
      }
    },
    {
      "type": "Feature",
      "properties": {
        "norad_id": 44204,
        "name": "BEIDOU-3 IGSO-1 (C38)",
        "group": "beidou",
        "lat": 36.9791885078525,
        "lon": -167.9267340213865,
        "alt_km": 35782.06785058239,
        "timestamp": "2025-12-11T22:43:47.534115+00:00",
        "meta_object_name": "BEIDOU-3 IGSO-1 (C38)",
        "meta_object_id": "2019-023A",
        "meta_epoch": "2025-11-19T14:15:02.708640",
        "meta_mean_motion": 1.00252177,
        "meta_eccentricity": 0.0026966,
        "meta_inclination": 58.4003,
        "meta_ra_of_asc_node": 39.8168,
        "meta_arg_of_pericenter": 221.2202,
        "meta_mean_anomaly": 126.9723,
        "meta_ephemeris_type": 0,
        "meta_classification_type": "U",
        "meta_norad_cat_id": 44204,
        "meta_element_set_no": 999,
        "meta_rev_at_epoch": 510,
        "meta_bstar": 0,
        "meta_mean_motion_dot": -2.26e-06,
        "meta_mean_motion_ddot": 0,
        "tle_line1": "1 44204U 19023A   25323.59378135 -.00000226  00000+0  00000+0 0  9994",
        "tle_line2": "2 44204  58.4003  39.8168 0026966 221.2202 126.9723  1.00252177  5102"
      },
      "geometry": {
        "type": "Point",
        "coordinates": [
          -167.9267340213865,
          36.9791885078525
        ]
      }
    },
    {
      "type": "Feature",
      "properties": {
        "norad_id": 44231,
        "name": "BEIDOU-2 G8 (C01)",
        "group": "beidou",
        "lat": 1.2286220489838977,
        "lon": -153.71982453954345,
        "alt_km": 35807.1928654594,
        "timestamp": "2025-12-11T22:43:47.534130+00:00",
        "meta_object_name": "BEIDOU-2 G8 (C01)",
        "meta_object_id": "2019-027A",
        "meta_epoch": "2025-12-11T14:11:56.112288",
        "meta_mean_motion": 1.00268068,
        "meta_eccentricity": 0.00086595,
        "meta_inclination": 1.6594,
        "meta_ra_of_asc_node": 74.6983,
        "meta_arg_of_pericenter": 255.4391,
        "meta_mean_anomaly": 107.9058,
        "meta_ephemeris_type": 0,
        "meta_classification_type": "U",
        "meta_norad_cat_id": 44231,
        "meta_element_set_no": 999,
        "meta_rev_at_epoch": 2420,
        "meta_bstar": 0,
        "meta_mean_motion_dot": -2.41e-06,
        "meta_mean_motion_ddot": 0,
        "tle_line1": "1 44231U 19027A   25345.59162167 -.00000241  00000+0  00000+0 0  9995",
        "tle_line2": "2 44231   1.6594  74.6983 0008659 255.4391 107.9058  1.00268068 24204"
      },
      "geometry": {
        "type": "Point",
        "coordinates": [
          -153.71982453954345,
          1.2286220489838977
        ]
      }
    },
    {
      "type": "Feature",
      "properties": {
        "norad_id": 44337,
        "name": "BEIDOU-3 IGSO-2 (C39)",
        "group": "beidou",
        "lat": 17.005006377323983,
        "lon": 172.78033117365302,
        "alt_km": 35941.95140497516,
        "timestamp": "2025-12-11T22:43:47.534142+00:00",
        "meta_object_name": "BEIDOU-3 IGSO-2 (C39)",
        "meta_object_id": "2019-035A",
        "meta_epoch": "2025-12-10T21:20:38.716800",
        "meta_mean_motion": 1.00271557,
        "meta_eccentricity": 0.00373373,
        "meta_inclination": 55.2247,
        "meta_ra_of_asc_node": 160.5169,
        "meta_arg_of_pericenter": 202.3364,
        "meta_mean_anomaly": 156.6887,
        "meta_ephemeris_type": 0,
        "meta_classification_type": "U",
        "meta_norad_cat_id": 44337,
        "meta_element_set_no": 999,
        "meta_rev_at_epoch": 2377,
        "meta_bstar": 0,
        "meta_mean_motion_dot": -6.6e-07,
        "meta_mean_motion_ddot": 0,
        "tle_line1": "1 44337U 19035A   25344.88933700 -.00000066  00000+0  00000+0 0  9996",
        "tle_line2": "2 44337  55.2247 160.5169 0037337 202.3364 156.6887  1.00271557 23777"
      },
      "geometry": {
        "type": "Point",
        "coordinates": [
          172.78033117365302,
          17.005006377323983
        ]
      }
    },
    {
      "type": "Feature",
      "properties": {
        "norad_id": 44542,
        "name": "BEIDOU-3 M24 (C46)",
        "group": "beidou",
        "lat": 49.13334918630451,
        "lon": -115.04790136450858,
        "alt_km": 21503.335058183544,
        "timestamp": "2025-12-11T22:43:47.534154+00:00",
        "meta_object_name": "BEIDOU-3 M24 (C46)",
        "meta_object_id": "2019-061A",
        "meta_epoch": "2025-12-11T07:23:46.944672",
        "meta_mean_motion": 1.86229184,
        "meta_eccentricity": 0.00095368,
        "meta_inclination": 54.4002,
        "meta_ra_of_asc_node": 189.0644,
        "meta_arg_of_pericenter": 24.0649,
        "meta_mean_anomaly": 336.0386,
        "meta_ephemeris_type": 0,
        "meta_classification_type": "U",
        "meta_norad_cat_id": 44542,
        "meta_element_set_no": 999,
        "meta_rev_at_epoch": 4229,
        "meta_bstar": 0,
        "meta_mean_motion_dot": 6.6e-07,
        "meta_mean_motion_ddot": 0,
        "tle_line1": "1 44542U 19061A   25345.30818223  .00000066  00000+0  00000+0 0  9992",
        "tle_line2": "2 44542  54.4002 189.0644 0009536  24.0649 336.0386  1.86229184 42293"
      },
      "geometry": {
        "type": "Point",
        "coordinates": [
          -115.04790136450858,
          49.13334918630451
        ]
      }
    },
    {
      "type": "Feature",
      "properties": {
        "norad_id": 44543,
        "name": "BEIDOU-3 M23 (C45)",
        "group": "beidou",
        "lat": -15.255379294706971,
        "lon": 177.74811715889547,
        "alt_km": 21517.950613489178,
        "timestamp": "2025-12-11T22:43:47.534166+00:00",
        "meta_object_name": "BEIDOU-3 M23 (C45)",
        "meta_object_id": "2019-061B",
        "meta_epoch": "2025-12-08T18:00:07.463232",
        "meta_mean_motion": 1.8622754,
        "meta_eccentricity": 0.00060873,
        "meta_inclination": 54.3989,
        "meta_ra_of_asc_node": 189.119,
        "meta_arg_of_pericenter": 23.0878,
        "meta_mean_anomaly": 334.736,
        "meta_ephemeris_type": 0,
        "meta_classification_type": "U",
        "meta_norad_cat_id": 44543,
        "meta_element_set_no": 999,
        "meta_rev_at_epoch": 4224,
        "meta_bstar": 0,
        "meta_mean_motion_dot": 5e-07,
        "meta_mean_motion_ddot": 0,
        "tle_line1": "1 44543U 19061B   25342.75008638  .00000050  00000+0  00000+0 0  9993",
        "tle_line2": "2 44543  54.3989 189.1190 0006087  23.0878 334.7360  1.86227540 42241"
      },
      "geometry": {
        "type": "Point",
        "coordinates": [
          177.74811715889547,
          -15.255379294706971
        ]
      }
    }
  ]
}